[
    {
        "Altitude(m)": 611967.1970829784,
        "Argument of Periapsis(deg)": 0.0,
        "Eccentricity": 0.0,
        "Inclination(deg)": 60.0,
        "Latitude(deg)": 59.14021659607,
        "Longitude(deg)": 41.09192397876011,
        "Mean Anomaly(deg)": 98.18180000000001,
        "RAAN(deg)": 35.0,
        "Satellite Name": "Test1 160",
        "Satellite Number": 160,
        "Semi-Major Axis(m)": 6980739.136638005,
        "Time(s)": 0
    },
    {
        "Altitude(m)": 611934.3975141475,
        "Argument of Periapsis(deg)": 0.00010418945913296404,
        "Eccentricity": 0.0,
        "Inclination(deg)": 60.0,
        "Latitude(deg)": 58.98658034295286,
        "Longitude(deg)": 42.21517233487765,
        "Mean Anomaly(deg)": 98.80190614546183,
        "RAAN(deg)": 34.99957995086025,
        "Satellite Name": "Test1 160",
        "Satellite Number": 160,
        "Semi-Major Axis(m)": 6980739.136638005,
        "Time(s)": 10
    }
]